{
  "norad_id": 63975,
  "name": "STARLINK-34139",
  "history": [
    {
      "epoch": "2026-03-28T15:27:04.787424Z",
      "apogee_km": 483.684871895397,
      "perigee_km": 482.3126447437335,
      "latitude_deg": -4.8449866270692865e-06,
      "longitude_deg": 8.00004783866,
      "height_km": 482.75594712559854,
      "semi_major_axis_km": 6861.135758319565,
      "eccentricity": 0.0001,
      "inclination_deg": 43.0012,
      "raan_deg": 65.8313,
      "arg_perigee_deg": 271.6124,
      "mean_anomaly_deg": 88.4613,
      "mean_motion_rev_day": 15.27596811
    },
    {
      "epoch": "2026-03-29T05:34:28.928064Z",
      "apogee_km": 483.17076019332126,
      "perigee_km": 482.73439489618977,
      "latitude_deg": -4.885081060400347e-06,
      "longitude_deg": 152.24483548114964,
      "height_km": 482.65930288237433,
      "semi_major_axis_km": 6861.089577544755,
      "eccentricity": 3.18e-05,
      "inclination_deg": 43.0022,
      "raan_deg": 62.5067,
      "arg_perigee_deg": 288.5017,
      "mean_anomaly_deg": 71.58,
      "mean_motion_rev_day": 15.27612234
    },
    {
      "epoch": "2026-03-30T05:06:49.466592Z",
      "apogee_km": 483.7841251539676,
      "perigee_km": 482.2332317848068,
      "latitude_deg": 2.9708104035995338e-05,
      "longitude_deg": 152.65418184673467,
      "height_km": 482.72026472821574,
      "semi_major_axis_km": 6861.145678469387,
      "eccentricity": 0.00011302,
      "inclination_deg": 43.0021,
      "raan_deg": 56.9683,
      "arg_perigee_deg": 274.8174,
      "mean_anomaly_deg": 85.2549,
      "mean_motion_rev_day": 15.27593498
    },
    {
      "epoch": "2026-03-30T14:31:45.450624Z",
      "apogee_km": 485.12901404693184,
      "perigee_km": 480.8058321499375,
      "latitude_deg": 1.316394021392928e-05,
      "longitude_deg": 8.818214912129545,
      "height_km": 482.01500111180485,
      "semi_major_axis_km": 6861.104423098434,
      "eccentricity": 0.00031505,
      "inclination_deg": 43.0053,
      "raan_deg": 54.7523,
      "arg_perigee_deg": 289.7642,
      "mean_anomaly_deg": 70.287,
      "mean_motion_rev_day": 15.27607276
    },
    {
      "epoch": "2026-03-30T22:22:33.261888Z",
      "apogee_km": 483.31861217468395,
      "perigee_km": 482.69918792282715,
      "latitude_deg": -4.009355061906049e-05,
      "longitude_deg": -111.04870410045822,
      "height_km": 483.0227153697222,
      "semi_major_axis_km": 6861.145900048755,
      "eccentricity": 4.514e-05,
      "inclination_deg": 42.9995,
      "raan_deg": 52.9069,
      "arg_perigee_deg": 140.4448,
      "mean_anomaly_deg": 219.6436,
      "mean_motion_rev_day": 15.27593424
    },
    {
      "epoch": "2026-03-31T14:04:07.076064Z",
      "apogee_km": 483.7568572648088,
      "perigee_km": 482.2391741993288,
      "latitude_deg": -9.395359899452233e-07,
      "longitude_deg": 9.221168794288722,
      "height_km": 482.5618239024123,
      "semi_major_axis_km": 6861.1350157320685,
      "eccentricity": 0.0001106,
      "inclination_deg": 43.0054,
      "raan_deg": 49.2121,
      "arg_perigee_deg": 286.32,
      "mean_anomaly_deg": 73.753,
      "mean_motion_rev_day": 15.27597059
    },
    {
      "epoch": "2026-04-01T13:36:27.196416Z",
      "apogee_km": 483.19872579252115,
      "perigee_km": 482.7994076734385,
      "latitude_deg": 4.70020169791276e-05,
      "longitude_deg": 9.632577211371418,
      "height_km": 482.6910675357059,
      "semi_major_axis_km": 6861.13606673298,
      "eccentricity": 2.91e-05,
      "inclination_deg": 43.0003,
      "raan_deg": 43.674,
      "arg_perigee_deg": 294.7881,
      "mean_anomaly_deg": 65.2941,
      "mean_motion_rev_day": 15.27596708
    },
    {
      "epoch": "2026-04-02T13:08:48.300864Z",
      "apogee_km": 484.4033550517952,
      "perigee_km": 481.5956407741196,
      "latitude_deg": 2.1419912505378353e-05,
      "longitude_deg": 10.039495230390068,
      "height_km": 482.87075611532543,
      "semi_major_axis_km": 6861.136497912958,
      "eccentricity": 0.00020461,
      "inclination_deg": 43.0005,
      "raan_deg": 38.1356,
      "arg_perigee_deg": 266.1601,
      "mean_anomaly_deg": 93.9017,
      "mean_motion_rev_day": 15.27596564
    },
    {
      "epoch": "2026-04-03T20:31:56.533152Z",
      "apogee_km": 488.15298854031244,
      "perigee_km": 477.9449160804652,
      "latitude_deg": -1.4923065568759761e-05,
      "longitude_deg": -109.41950608611033,
      "height_km": 480.9763209292195,
      "semi_major_axis_km": 6861.1859523103885,
      "eccentricity": 0.0007439,
      "inclination_deg": 43.0086,
      "raan_deg": 30.7499,
      "arg_perigee_deg": 291.2878,
      "mean_anomaly_deg": 68.7179,
      "mean_motion_rev_day": 15.27580048
    },
    {
      "epoch": "2026-04-04T20:04:17.919264Z",
      "apogee_km": 483.92323559676333,
      "perigee_km": 482.0967982608563,
      "latitude_deg": 3.303474392331083e-05,
      "longitude_deg": -109.0132881838545,
      "height_km": 482.5239596208107,
      "semi_major_axis_km": 6861.1470169288095,
      "eccentricity": 0.0001331,
      "inclination_deg": 43.0021,
      "raan_deg": 25.2119,
      "arg_perigee_deg": 286.7326,
      "mean_anomaly_deg": 73.338,
      "mean_motion_rev_day": 15.27593051
    },
    {
      "epoch": "2026-04-05T11:45:52.083360Z",
      "apogee_km": 483.5807939206243,
      "perigee_km": 482.49439553529555,
      "latitude_deg": -4.2173841604394896e-05,
      "longitude_deg": 11.257998819949371,
      "height_km": 482.27518606153484,
      "semi_major_axis_km": 6861.17459472796,
      "eccentricity": 7.917e-05,
      "inclination_deg": 42.9969,
      "raan_deg": 21.5201,
      "arg_perigee_deg": 8.3548,
      "mean_anomaly_deg": 351.7316,
      "mean_motion_rev_day": 15.27583841
    },
    {
      "epoch": "2026-04-06T05:01:34.384800Z",
      "apogee_km": 483.92811037272713,
      "perigee_km": 482.0259351210616,
      "latitude_deg": -1.4773174714285097e-05,
      "longitude_deg": 107.56065571597078,
      "height_km": 482.58764691526244,
      "semi_major_axis_km": 6861.114022746894,
      "eccentricity": 0.00013862,
      "inclination_deg": 43.0026,
      "raan_deg": 17.4579,
      "arg_perigee_deg": 280.0738,
      "mean_anomaly_deg": 79.9957,
      "mean_motion_rev_day": 15.2760407
    },
    {
      "epoch": "2026-04-07T14:00:01.999872Z",
      "apogee_km": 484.2661394554507,
      "perigee_km": 482.0566641441037,
      "latitude_deg": 3.0242500907993874,
      "longitude_deg": -32.9378072333553,
      "height_km": 482.8046701225139,
      "semi_major_axis_km": 6861.298401799777,
      "eccentricity": 0.00016101,
      "inclination_deg": 43.0018,
      "raan_deg": 9.699,
      "arg_perigee_deg": 263.5554,
      "mean_anomaly_deg": 100.9216,
      "mean_motion_rev_day": 15.27542495
    },
    {
      "epoch": "2026-04-07T20:00:00.999360Z",
      "apogee_km": 484.0305495992434,
      "perigee_km": 482.1409688513522,
      "latitude_deg": -36.02556707069639,
      "longitude_deg": -178.67090715306634,
      "height_km": 492.7593730566031,
      "semi_major_axis_km": 6861.2227592252975,
      "eccentricity": 0.0001377,
      "inclination_deg": 43.0016,
      "raan_deg": 8.2888,
      "arg_perigee_deg": 262.6262,
      "mean_anomaly_deg": 38.1873,
      "mean_motion_rev_day": 15.27567756
    },
    {
      "epoch": "2026-04-08T02:32:08.924640Z",
      "apogee_km": 483.802627074404,
      "perigee_km": 482.4513697425582,
      "latitude_deg": -5.158126261535068e-05,
      "longitude_deg": 132.3408826114334,
      "height_km": 482.9073408965182,
      "semi_major_axis_km": 6861.263998408481,
      "eccentricity": 9.847e-05,
      "inclination_deg": 43.0001,
      "raan_deg": 6.7511,
      "arg_perigee_deg": 269.6627,
      "mean_anomaly_deg": 90.4111,
      "mean_motion_rev_day": 15.27553984
    },
    {
      "epoch": "2026-04-09T09:55:14.964096Z",
      "apogee_km": 483.5592922197975,
      "perigee_km": 482.4538247696528,
      "latitude_deg": -4.719679718639744e-06,
      "longitude_deg": 12.88932762283077,
      "height_km": 482.2295233596988,
      "semi_major_axis_km": 6861.143558494725,
      "eccentricity": 8.056e-05,
      "inclination_deg": 43.0012,
      "raan_deg": 359.3636,
      "arg_perigee_deg": 359.1102,
      "mean_anomaly_deg": 0.9748,
      "mean_motion_rev_day": 15.27594206
    },
    {
      "epoch": "2026-04-10T09:27:35.460288Z",
      "apogee_km": 483.8610477771035,
      "perigee_km": 482.1965289568452,
      "latitude_deg": -1.4293852553268271e-05,
      "longitude_deg": 13.299900489450444,
      "height_km": 482.57075597118126,
      "semi_major_axis_km": 6861.165788366974,
      "eccentricity": 0.0001213,
      "inclination_deg": 43.001,
      "raan_deg": 353.8263,
      "arg_perigee_deg": 286.3784,
      "mean_anomaly_deg": 73.6934,
      "mean_motion_rev_day": 15.27586782
    },
    {
      "epoch": "2026-04-11T16:50:44.388096Z",
      "apogee_km": 484.01142176195845,
      "perigee_km": 482.30707577376506,
      "latitude_deg": 3.674307952577001e-05,
      "longitude_deg": -106.16191637241589,
      "height_km": 482.97837853250917,
      "semi_major_axis_km": 6861.2962487678615,
      "eccentricity": 0.0001242,
      "inclination_deg": 43.0013,
      "raan_deg": 346.4406,
      "arg_perigee_deg": 267.1465,
      "mean_anomaly_deg": 92.9245,
      "mean_motion_rev_day": 15.27543214
    },
    {
      "epoch": "2026-04-13T00:13:52.782816Z",
      "apogee_km": 483.88626308627954,
      "perigee_km": 482.11842192329004,
      "latitude_deg": -1.1670531612707384e-05,
      "longitude_deg": 134.3803895624044,
      "height_km": 482.8229051557823,
      "semi_major_axis_km": 6861.1393425047845,
      "eccentricity": 0.00012883,
      "inclination_deg": 43.0004,
      "raan_deg": 339.0569,
      "arg_perigee_deg": 267.1521,
      "mean_anomaly_deg": 92.9183,
      "mean_motion_rev_day": 15.27595614
    }
  ]
}